NORAD_CAT_ID,OBJECT_NAME,OBJECT_TYPE,EPOCH,MEAN_MOTION,ECCENTRICITY,INCLINATION,RA_OF_ASC_NODE,ARG_OF_PERICENTER,MEAN_ANOMALY,BSTAR,MEAN_MOTION_DOT,MEAN_MOTION_DDOT,TLE_LINE0,TLE_LINE1,TLE_LINE2,SEMIMAJOR_AXIS,PERIOD,APOGEE,PERIGEE,DECAYED
52605.0,STARLINK-4000,PAYLOAD,2024-06-07 07:50:00,15.08835722,0.0001691,53.2136,278.6024,88.4075,271.7111,0.00025424,3.76e-05,0.0,0 STARLINK-4000,1 52605U 22052H   24159.32639029  .00003760  00000-0  25424-3 0  9990,2 52605  53.2136 278.6024 0001691  88.4075 271.7111 15.08835722114487,6917.893,95.438,540.928,538.589,0.0
52605.0,STARLINK-4000,PAYLOAD,2024-06-07 14:11:33,15.0882854,0.0001043,53.2175,277.4135,93.0457,267.0655,0.00029132,4.35e-05,0.0,0 STARLINK-4000,1 52605U 22052H   24159.59135492  .00004350  00000-0  29132-3 0  9990,2 52605  53.2175 277.4135 0001043  93.0457 267.0655 15.08828540114152,6917.915,95.438,540.502,539.059,0.0
52605.0,STARLINK-4000,PAYLOAD,2024-06-08 12:26:56,15.08845149,0.0001239,53.2174,273.2506,86.5049,273.6085,6.6742e-05,7.75e-06,0.0,0 STARLINK-4000,1 52605U 22052H   24160.51870830  .00000775  00000-0  66742-4 0  9992,2 52605  53.2174 273.2506 0001239  86.5049 273.6085 15.08845149114668,6917.865,95.437,540.587,538.873,0.0
52605.0,STARLINK-4000,PAYLOAD,2024-06-08 14:02:19,15.08848831,0.0001634,53.217,272.9517,95.8,264.3178,7.1071e-05,8.43e-06,0.0,0 STARLINK-4000,1 52605U 22052H   24160.58494543  .00000843  00000-0  71071-4 0  9999,2 52605  53.2170 272.9517 0001634  95.8000 264.3178 15.08848831114303,6917.853,95.437,540.849,538.588,0.0
52605.0,STARLINK-4000,PAYLOAD,2024-06-08 15:37:41,15.08815292,0.0001736,53.217,272.6543,99.5145,260.6043,0.00048427,7.422e-05,0.0,0 STARLINK-4000,1 52605U 22052H   24160.65117978  .00007422  00000-0  48427-3 0  9999,2 52605  53.2170 272.6543 0001736  99.5145 260.6043 15.08815292114319,6917.956,95.439,541.022,538.62,0.0
52605.0,STARLINK-4000,PAYLOAD,2024-06-09 12:17:43,15.08835098,0.0001625,53.2155,268.7888,118.9733,241.1422,2.9497e-05,1.81e-06,0.0,0 STARLINK-4000,1 52605U 22052H   24161.51231467  .00000181  00000-0  29497-4 0  9997,2 52605  53.2155 268.7888 0001625 118.9733 241.1422 15.08835098114812,6917.895,95.438,540.885,538.636,0.0
52605.0,STARLINK-4000,PAYLOAD,2024-06-09 15:28:30,15.08833736,0.0001172,53.2163,268.1953,107.6812,252.4309,1.9096e-05,1.6e-07,0.0,0 STARLINK-4000,1 52605U 22052H   24161.64479687  .00000016  00000-0  19096-4 0  9990,2 52605  53.2163 268.1953 0001172 107.6812 252.4309 15.08833736114465,6917.9,95.438,540.575,538.954,0.0
52605.0,STARLINK-4000,PAYLOAD,2024-06-10 13:43:53,15.08845254,0.0001284,53.2164,264.0316,96.8108,263.303,0.00010182,1.333e-05,0.0,0 STARLINK-4000,1 52605U 22052H   24162.57215032  .00001333  00000-0  10182-3 0  9994,2 52605  53.2164 264.0316 0001284  96.8108 263.3030 15.08845254114971,6917.864,95.437,540.618,538.841,0.0
52605.0,STARLINK-4000,PAYLOAD,2024-06-10 23:16:11,15.08860092,0.0001301,53.2175,262.2493,99.2281,260.8858,0.00016391,2.323e-05,0.0,0 STARLINK-4000,1 52605U 22052H   24162.96957779  .00002323  00000-0  16391-3 0  9996,2 52605  53.2175 262.2493 0001301  99.2281 260.8858 15.08860092115033,6917.819,95.436,540.584,538.784,0.0
52605.0,STARLINK-4000,PAYLOAD,2024-06-11 13:34:41,15.08838745,0.0001799,53.2176,259.5774,112.437,247.6813,0.00026411,3.918e-05,0.0,0 STARLINK-4000,1 52605U 22052H   24163.56576160  .00003918  00000-0  26411-3 0  9999,2 52605  53.2176 259.5774 0001799 112.4370 247.6813 15.08838745114755,6917.884,95.438,540.994,538.505,0.0
52605.0,STARLINK-4000,PAYLOAD,2024-06-11 23:06:59,15.08852936,0.0001522,53.2187,257.7921,94.1821,265.9345,0.00022751,3.336e-05,0.0,0 STARLINK-4000,1 52605U 22052H   24163.96318681  .00003336  00000-0  22751-3 0  9992,2 52605  53.2187 257.7921 0001522  94.1821 265.9345 15.08852936115181,6917.841,95.437,540.759,538.653,0.0
52605.0,STARLINK-4000,PAYLOAD,2024-06-12 07:03:55,15.08824239,0.0001311,53.217,256.3039,101.795,258.3189,-0.0004279,-7.088e-05,0.0,0 STARLINK-4000,1 52605U 22052H   24164.29439690 -.00007088  00000-0 -42790-3 0  9998,2 52605  53.2170 256.3039 0001311 101.7950 258.3189 15.08824239114863,6917.929,95.439,540.701,538.887,0.0
52605.0,STARLINK-4000,PAYLOAD,2024-06-12 13:25:28,15.0882753,0.0001333,53.2176,255.116,110.1851,249.9284,-0.00022934,-3.935e-05,0.0,0 STARLINK-4000,1 52605U 22052H   24164.55936046 -.00003935  00000-0 -22934-3 0  9999,2 52605  53.2176 255.1160 0001333 110.1851 249.9284 15.08827530115274,6917.919,95.438,540.706,538.861,0.0
52605.0,STARLINK-4000,PAYLOAD,2024-06-13 11:40:52,15.08842981,0.0001298,53.216,250.9513,99.5167,260.5972,0.00026148,3.876e-05,0.0,0 STARLINK-4000,1 52605U 22052H   24165.48671785  .00003876  00000-0  26148-3 0  9991,2 52605  53.2160 250.9513 0001298  99.5167 260.5972 15.08842981115418,6917.871,95.437,540.634,538.838,0.0
52605.0,STARLINK-4000,PAYLOAD,2024-06-13 14:51:38,15.08848341,0.0001132,53.2149,250.3558,93.5492,266.563,0.0008617,0.00013456,0.0,0 STARLINK-4000,1 52605U 22052H   24165.61920003  .00013456  00000-0  86170-3 0  9992,2 52605  53.2149 250.3558 0001132  93.5492 266.5630 15.08848341115064,6917.855,95.437,540.503,538.937,0.0
52605.0,STARLINK-4000,PAYLOAD,2024-06-14 13:07:02,15.08851142,0.0001083,53.2144,246.1918,79.3894,280.722,0.00045598,6.979e-05,0.0,0 STARLINK-4000,1 52605U 22052H   24166.54655535  .00006979  00000-0  45598-3 0  9991,2 52605  53.2144 246.1918 0001083  79.3894 280.7220 15.08851142115207,6917.846,95.437,540.461,538.962,0.0
52605.0,STARLINK-4000,PAYLOAD,2024-06-14 22:39:21,15.0885556,0.0001096,53.2143,244.4072,76.8428,283.2686,0.00083736,0.00013069,0.0,0 STARLINK-4000,1 52605U 22052H   24166.94399395  .00013069  00000-0  83736-3 0  9998,2 52605  53.2143 244.4072 0001096  76.8428 283.2686 15.08855560115265,6917.833,95.437,540.456,538.94,0.0
52605.0,STARLINK-4000,PAYLOAD,2024-06-15 11:22:26,15.08842551,0.0001031,53.2163,242.0266,87.7212,272.3898,0.00043801,6.69e-05,0.0,0 STARLINK-4000,1 52605U 22052H   24167.47391508  .00006690  00000-0  43801-3 0  9996,2 52605  53.2163 242.0266 0001031  87.7212 272.3898 15.08842551115346,6917.873,95.437,540.451,539.024,0.0
52605.0,STARLINK-4000,PAYLOAD,2024-06-15 22:30:08,15.0885188,0.0001386,53.2166,239.9427,100.692,259.4228,0.00051373,7.9e-05,0.0,0 STARLINK-4000,1 52605U 22052H   24167.93759260  .00007900  00000-0  51373-3 0  9998,2 52605  53.2166 239.9427 0001386 100.6920 259.4228 15.08851880115413,6917.844,95.437,540.668,538.75,0.0
52605.0,STARLINK-4000,PAYLOAD,2024-06-16 11:13:13,15.0883825,0.0001282,53.217,237.5679,92.362,267.7519,6.6311e-05,7.68e-06,0.0,0 STARLINK-4000,1 52605U 22052H   24168.46751715  .00000768  00000-0  66311-4 0  9998,2 52605  53.2170 237.5679 0001282  92.3620 267.7519 15.08838250115499,6917.886,95.438,540.638,538.864,0.0
52605.0,STARLINK-4000,PAYLOAD,2024-06-17 14:14:47,15.08836878,0.0001467,53.215,232.513,63.1484,296.9658,-1.4521e-05,-5.19e-06,0.0,0 STARLINK-4000,1 52605U 22052H   24169.59359961 -.00000519  00000-0 -14521-4 0  9992,2 52605  53.2150 232.5130 0001467  63.1484 296.9658 15.08836878116036,6917.89,95.438,540.77,538.74,0.0
52605.0,STARLINK-4000,PAYLOAD,2024-06-18 10:54:47,15.08839491,0.0001192,53.2145,228.6467,88.4529,271.66,0.00016204,2.292e-05,0.0,0 STARLINK-4000,1 52605U 22052H   24170.45472078  .00002292  00000-0  16204-3 0  9991,2 52605  53.2145 228.6467 0001192  88.4529 271.6600 15.08839491115797,6917.882,95.438,540.572,538.922,0.0
52605.0,STARLINK-4000,PAYLOAD,2024-06-18 20:27:06,15.08847865,0.0001207,53.215,226.8624,88.3679,271.7451,0.00021502,3.137e-05,0.0,0 STARLINK-4000,1 52605U 22052H   24170.85215549  .00003137  00000-0  21502-3 0  9999,2 52605  53.2150 226.8624 0001207  88.3679 271.7451 15.08847865116228,6917.856,95.437,540.556,538.886,0.0
52605.0,STARLINK-4000,PAYLOAD,2024-06-19 10:45:35,15.08834709,0.0001348,53.2145,224.1867,108.7256,251.3882,4.8602e-05,4.86e-06,0.0,0 STARLINK-4000,1 52605U 22052H   24171.44832361  .00000486  00000-0  48602-4 0  9997,2 52605  53.2145 224.1867 0001348 108.7256 251.3882 15.08834709116311,6917.897,95.438,540.694,538.829,0.0
52605.0,STARLINK-4000,PAYLOAD,2024-06-20 12:11:45,15.08841028,0.0001504,53.2162,219.431,100.5148,259.6014,7.9713e-05,9.81e-06,0.0,0 STARLINK-4000,1 52605U 22052H   24172.50816119  .00000981  00000-0  79713-4 0  9995,2 52605  53.2162 219.4310 0001504 100.5148 259.6014 15.08841028116101,6917.877,95.437,540.783,538.702,0.0
52605.0,STARLINK-4000,PAYLOAD,2024-06-21 10:27:09,15.08840353,0.0001389,53.2152,215.265,76.9538,283.1609,9.4507e-05,1.216e-05,0.0,0 STARLINK-4000,1 52605U 22052H   24173.43552269  .00001216  00000-0  94507-4 0  9991,2 52605  53.2152 215.2650 0001389  76.9538 283.1609 15.08840353116248,6917.879,95.438,540.705,538.783,0.0
52605.0,STARLINK-4000,PAYLOAD,2024-06-22 10:17:56,15.08838781,0.0001445,53.2163,210.8043,76.7897,283.3256,3.0457e-05,1.97e-06,0.0,0 STARLINK-4000,1 52605U 22052H   24174.42912865  .00000197  00000-0  30457-4 0  9994,2 52605  53.2163 210.8043 0001445  76.7897 283.3256 15.08838781116765,6917.884,95.438,540.749,538.749,0.0
52605.0,STARLINK-4000,PAYLOAD,2024-06-23 08:33:20,15.08841101,0.0001461,53.2159,206.6423,73.9117,286.2036,0.0001209,1.637e-05,0.0,0 STARLINK-4000,1 52605U 22052H   24175.35648565  .00001637  00000-0  12090-3 0  9992,2 52605  53.2159 206.6423 0001461  73.9117 286.2036 15.08841101116530,6917.877,95.437,540.753,538.731,0.0
52605.0,STARLINK-4000,PAYLOAD,2024-06-24 02:02:36,15.08811165,0.0001732,53.2151,203.3747,61.6517,298.4649,0.00023713,3.485e-05,0.0,0 STARLINK-4000,1 52605U 22052H   24176.08514223  .00003485  00000-0  23713-3 0  9993,2 52605  53.2151 203.3747 0001732  61.6517 298.4649 15.08811165117010,6917.969,95.439,541.032,538.635,0.0
52605.0,STARLINK-4000,PAYLOAD,2024-06-24 08:24:09,15.08822602,0.000134,53.2158,202.1702,99.6057,260.5086,-2.8185e-05,-7.36e-06,0.0,0 STARLINK-4000,1 52605U 22052H   24176.35010541 -.00000736  00000-0 -28185-4 0  9994,2 52605  53.2158 202.1702 0001340  99.6057 260.5086 15.08822602116685,6917.934,95.439,540.726,538.872,0.0
